STARLINK-2460           
1 48120U 21027AE  26068.55193043  .00001444  00000+0  60877-4 0  9993
2 48120  53.1595 168.4494 0001173  88.5814 271.5321 15.30193110272463
NUSAT-48 (HENRIETTA LE*)
1 60498U 24149AG  26068.80506098  .00012988  00000+0  45212-3 0  9999
2 60498  97.3923 150.8264 0002754 263.3026  96.7901 15.29812597 86946
